{"type":"FeatureCollection","metadata":{"_source":"SYNTHETIC_DEMO","_disclaimer":"Synthetic prototype data — not an official land record.","description":"35 synthetic prototype parcel polygons within the Bhopal UAVPal UAV coverage area. These are NOT official government cadastral records. All identifiers, owner names, and property data are synthetic.","coverageBounds":{"minLon":77.41299,"maxLon":77.42268,"minLat":23.2558,"maxLat":23.2567},"generatedBy":"Phase 5.5 synthetic dataset generator","topology_validation_results":[{"parcel_id":"parcel-demo-001","geometry_valid":true,"self_intersection":false,"zero_area":false,"overlap_detected":false,"duplicate_detected":false,"status":"VALID"},{"parcel_id":"parcel-demo-002","geometry_valid":true,"self_intersection":false,"zero_area":false,"overlap_detected":false,"duplicate_detected":false,"status":"VALID"},{"parcel_id":"parcel-demo-003","geometry_valid":true,"self_intersection":false,"zero_area":false,"overlap_detected":false,"duplicate_detected":false,"status":"VALID"},{"parcel_id":"parcel-demo-004","geometry_valid":true,"self_intersection":false,"zero_area":false,"overlap_detected":false,"duplicate_detected":false,"status":"VALID"},{"parcel_id":"parcel-demo-005","geometry_valid":true,"self_intersection":false,"zero_area":false,"overlap_detected":false,"duplicate_detected":false,"status":"VALID"},{"parcel_id":"parcel-demo-006","geometry_valid":true,"self_intersection":false,"zero_area":false,"overlap_detected":false,"duplicate_detected":false,"status":"VALID"},{"parcel_id":"parcel-demo-007","geometry_valid":true,"self_intersection":false,"zero_area":false,"overlap_detected":false,"duplicate_detected":false,"status":"VALID"},{"parcel_id":"parcel-demo-008","geometry_valid":true,"self_intersection":false,"zero_area":false,"overlap_detected":false,"duplicate_detected":false,"status":"VALID"},{"parcel_id":"parcel-demo-009","geometry_valid":true,"self_intersection":false,"zero_area":false,"overlap_detected":false,"duplicate_detected":false,"status":"VALID"},{"parcel_id":"parcel-demo-010","geometry_valid":true,"self_intersection":false,"zero_area":false,"overlap_detected":false,"duplicate_detected":false,"status":"VALID"},{"parcel_id":"parcel-demo-011","geometry_valid":true,"self_intersection":false,"zero_area":false,"overlap_detected":false,"duplicate_detected":false,"status":"VALID"},{"parcel_id":"parcel-demo-012","geometry_valid":true,"self_intersection":false,"zero_area":false,"overlap_detected":false,"duplicate_detected":false,"status":"VALID"},{"parcel_id":"parcel-demo-013","geometry_valid":true,"self_intersection":false,"zero_area":false,"overlap_detected":false,"duplicate_detected":false,"status":"VALID"},{"parcel_id":"parcel-demo-014","geometry_valid":true,"self_intersection":false,"zero_area":false,"overlap_detected":false,"duplicate_detected":false,"status":"VALID"},{"parcel_id":"parcel-demo-015","geometry_valid":true,"self_intersection":false,"zero_area":false,"overlap_detected":false,"duplicate_detected":false,"status":"VALID"},{"parcel_id":"parcel-demo-016","geometry_valid":true,"self_intersection":false,"zero_area":false,"overlap_detected":false,"duplicate_detected":false,"status":"VALID"},{"parcel_id":"parcel-demo-017","geometry_valid":true,"self_intersection":false,"zero_area":false,"overlap_detected":false,"duplicate_detected":false,"status":"VALID"},{"parcel_id":"parcel-demo-018","geometry_valid":true,"self_intersection":false,"zero_area":false,"overlap_detected":false,"duplicate_detected":false,"status":"VALID"},{"parcel_id":"parcel-demo-019","geometry_valid":true,"self_intersection":false,"zero_area":false,"overlap_detected":false,"duplicate_detected":false,"status":"VALID"},{"parcel_id":"parcel-demo-020","geometry_valid":true,"self_intersection":false,"zero_area":false,"overlap_detected":false,"duplicate_detected":false,"status":"VALID"},{"parcel_id":"parcel-demo-021","geometry_valid":true,"self_intersection":false,"zero_area":false,"overlap_detected":false,"duplicate_detected":false,"status":"VALID"},{"parcel_id":"parcel-demo-022","geometry_valid":true,"self_intersection":false,"zero_area":false,"overlap_detected":false,"duplicate_detected":false,"status":"VALID"},{"parcel_id":"parcel-demo-023","geometry_valid":true,"self_intersection":false,"zero_area":false,"overlap_detected":false,"duplicate_detected":false,"status":"VALID"},{"parcel_id":"parcel-demo-024","geometry_valid":true,"self_intersection":false,"zero_area":false,"overlap_detected":false,"duplicate_detected":false,"status":"VALID"},{"parcel_id":"parcel-demo-025","geometry_valid":true,"self_intersection":false,"zero_area":false,"overlap_detected":false,"duplicate_detected":false,"status":"VALID"},{"parcel_id":"parcel-demo-026","geometry_valid":true,"self_intersection":false,"zero_area":false,"overlap_detected":false,"duplicate_detected":false,"status":"VALID"},{"parcel_id":"parcel-demo-027","geometry_valid":true,"self_intersection":false,"zero_area":false,"overlap_detected":false,"duplicate_detected":false,"status":"VALID"},{"parcel_id":"parcel-demo-028","geometry_valid":true,"self_intersection":false,"zero_area":false,"overlap_detected":false,"duplicate_detected":false,"status":"VALID"},{"parcel_id":"parcel-demo-029","geometry_valid":true,"self_intersection":false,"zero_area":false,"overlap_detected":false,"duplicate_detected":false,"status":"VALID"},{"parcel_id":"parcel-demo-030","geometry_valid":true,"self_intersection":false,"zero_area":false,"overlap_detected":false,"duplicate_detected":false,"status":"VALID"},{"parcel_id":"parcel-demo-031","geometry_valid":true,"self_intersection":false,"zero_area":false,"overlap_detected":false,"duplicate_detected":false,"status":"VALID"},{"parcel_id":"parcel-demo-032","geometry_valid":true,"self_intersection":false,"zero_area":false,"overlap_detected":false,"duplicate_detected":false,"status":"VALID"},{"parcel_id":"parcel-demo-033","geometry_valid":true,"self_intersection":false,"zero_area":false,"overlap_detected":false,"duplicate_detected":false,"status":"VALID"},{"parcel_id":"parcel-demo-034","geometry_valid":true,"self_intersection":false,"zero_area":false,"overlap_detected":false,"duplicate_detected":false,"status":"VALID"},{"parcel_id":"parcel-demo-035","geometry_valid":true,"self_intersection":false,"zero_area":false,"overlap_detected":false,"duplicate_detected":false,"status":"VALID"}]},"features":[{"type":"Feature","geometry":{"type":"Polygon","coordinates":[[[77.4131,23.2563],[77.41361,23.2563],[77.41361,23.25667],[77.4131,23.25667],[77.4131,23.2563]]]},"properties":{"id":"parcel-demo-001","property_id":"DRS-BPL-DEMO-001","plot_number":"BPL-DEMO-1001","survey_number":"SYN-0001","owner_name":"Rajesh Kumar","land_use":"Residential","property_type":"Residential","area_m2":2139.96,"status":"SYNTHETIC_DEMO","city":"Bhopal","state":"Madhya Pradesh","country":"India","centroid_lon":77.413355,"centroid_lat":23.256485,"shape_type":"rect","row":"A","_source":"SYNTHETIC_DEMO","_disclaimer":"Synthetic prototype data — not an official land record.","_datasetLabel":"Synthetic Demo Dataset — Bhopal"}},{"type":"Feature","geometry":{"type":"Polygon","coordinates":[[[77.41363,23.2563],[77.41414,23.2563],[77.41414,23.25667],[77.41363,23.25667],[77.41363,23.2563]]]},"properties":{"id":"parcel-demo-002","property_id":"DRS-BPL-DEMO-002","plot_number":"BPL-DEMO-1002","survey_number":"SYN-0002","owner_name":"Amit Sharma","land_use":"Residential","property_type":"Residential","area_m2":2139.97,"status":"SYNTHETIC_DEMO","city":"Bhopal","state":"Madhya Pradesh","country":"India","centroid_lon":77.413885,"centroid_lat":23.256485,"shape_type":"rect","row":"A","_source":"SYNTHETIC_DEMO","_disclaimer":"Synthetic prototype data — not an official land record.","_datasetLabel":"Synthetic Demo Dataset — Bhopal"}},{"type":"Feature","geometry":{"type":"Polygon","coordinates":[[[77.41416,23.2563],[77.41467,23.2563],[77.41467,23.25667],[77.41416,23.25667],[77.41416,23.2563]]]},"properties":{"id":"parcel-demo-003","property_id":"DRS-BPL-DEMO-003","plot_number":"BPL-DEMO-1003","survey_number":"SYN-0003","owner_name":"Priya Verma","land_use":"Residential","property_type":"Residential","area_m2":2139.97,"status":"SYNTHETIC_DEMO","city":"Bhopal","state":"Madhya Pradesh","country":"India","centroid_lon":77.414415,"centroid_lat":23.256485,"shape_type":"rect","row":"A","_source":"SYNTHETIC_DEMO","_disclaimer":"Synthetic prototype data — not an official land record.","_datasetLabel":"Synthetic Demo Dataset — Bhopal"}},{"type":"Feature","geometry":{"type":"Polygon","coordinates":[[[77.41469,23.2563],[77.4152,23.2563],[77.4152,23.256484999999998],[77.414996,23.256484999999998],[77.414996,23.25667],[77.41469,23.25667],[77.41469,23.2563]]]},"properties":{"id":"parcel-demo-004","property_id":"DRS-BPL-DEMO-004","plot_number":"BPL-DEMO-1004","survey_number":"SYN-0004","owner_name":"Neha Singh","land_use":"Residential","property_type":"Residential","area_m2":1711.97,"status":"SYNTHETIC_DEMO","city":"Bhopal","state":"Madhya Pradesh","country":"India","centroid_lon":77.4149068,"centroid_lat":23.2564619,"shape_type":"L","row":"A","_source":"SYNTHETIC_DEMO","_disclaimer":"Synthetic prototype data — not an official land record.","_datasetLabel":"Synthetic Demo Dataset — Bhopal"}},{"type":"Feature","geometry":{"type":"Polygon","coordinates":[[[77.41522,23.2563],[77.41573,23.2563],[77.41573,23.25667],[77.41522,23.25667],[77.41522,23.2563]]]},"properties":{"id":"parcel-demo-005","property_id":"DRS-BPL-DEMO-005","plot_number":"BPL-DEMO-1005","survey_number":"SYN-0005","owner_name":"Ankit Mishra","land_use":"Commercial","property_type":"Commercial","area_m2":2139.97,"status":"SYNTHETIC_DEMO","city":"Bhopal","state":"Madhya Pradesh","country":"India","centroid_lon":77.415475,"centroid_lat":23.256485,"shape_type":"rect","row":"A","_source":"SYNTHETIC_DEMO","_disclaimer":"Synthetic prototype data — not an official land record.","_datasetLabel":"Synthetic Demo Dataset — Bhopal"}},{"type":"Feature","geometry":{"type":"Polygon","coordinates":[[[77.41575,23.2563],[77.41626,23.2563],[77.41626,23.25667],[77.41575,23.25667],[77.41575,23.2563]]]},"properties":{"id":"parcel-demo-006","property_id":"DRS-BPL-DEMO-006","plot_number":"BPL-DEMO-1006","survey_number":"SYN-0006","owner_name":"Rahul Gupta","land_use":"Commercial","property_type":"Commercial","area_m2":2139.97,"status":"SYNTHETIC_DEMO","city":"Bhopal","state":"Madhya Pradesh","country":"India","centroid_lon":77.416005,"centroid_lat":23.256485,"shape_type":"rect","row":"A","_source":"SYNTHETIC_DEMO","_disclaimer":"Synthetic prototype data — not an official land record.","_datasetLabel":"Synthetic Demo Dataset — Bhopal"}},{"type":"Feature","geometry":{"type":"Polygon","coordinates":[[[77.41628,23.2563],[77.41679,23.25633],[77.41676000000001,23.25667],[77.41631,23.25664],[77.41628,23.2563]]]},"properties":{"id":"parcel-demo-007","property_id":"DRS-BPL-DEMO-007","plot_number":"BPL-DEMO-1007","survey_number":"SYN-0007","owner_name":"Pooja Yadav","land_use":"Mixed Use","property_type":"Mixed Use","area_m2":1850.79,"status":"SYNTHETIC_DEMO","city":"Bhopal","state":"Madhya Pradesh","country":"India","centroid_lon":77.4165354,"centroid_lat":23.2564815,"shape_type":"irr","row":"A","_source":"SYNTHETIC_DEMO","_disclaimer":"Synthetic prototype data — not an official land record.","_datasetLabel":"Synthetic Demo Dataset — Bhopal"}},{"type":"Feature","geometry":{"type":"Polygon","coordinates":[[[77.41681,23.2563],[77.41732,23.2563],[77.41732,23.25667],[77.41681,23.25667],[77.41681,23.2563]]]},"properties":{"id":"parcel-demo-008","property_id":"DRS-BPL-DEMO-008","plot_number":"BPL-DEMO-1008","survey_number":"SYN-0008","owner_name":"Arjun Patel","land_use":"Mixed Use","property_type":"Mixed Use","area_m2":2139.97,"status":"SYNTHETIC_DEMO","city":"Bhopal","state":"Madhya Pradesh","country":"India","centroid_lon":77.417065,"centroid_lat":23.256485,"shape_type":"rect","row":"A","_source":"SYNTHETIC_DEMO","_disclaimer":"Synthetic prototype data — not an official land record.","_datasetLabel":"Synthetic Demo Dataset — Bhopal"}},{"type":"Feature","geometry":{"type":"Polygon","coordinates":[[[77.41734,23.2563],[77.41785,23.2563],[77.41785,23.25667],[77.41734,23.25667],[77.41734,23.2563]]]},"properties":{"id":"parcel-demo-009","property_id":"DRS-BPL-DEMO-009","plot_number":"BPL-DEMO-1009","survey_number":"SYN-0009","owner_name":"Saurabh Tiwari","land_use":"Educational","property_type":"Educational","area_m2":2139.98,"status":"SYNTHETIC_DEMO","city":"Bhopal","state":"Madhya Pradesh","country":"India","centroid_lon":77.417595,"centroid_lat":23.256485,"shape_type":"rect","row":"A","_source":"SYNTHETIC_DEMO","_disclaimer":"Synthetic prototype data — not an official land record.","_datasetLabel":"Synthetic Demo Dataset — Bhopal"}},{"type":"Feature","geometry":{"type":"Polygon","coordinates":[[[77.41787,23.2563],[77.41838,23.2563],[77.41838,23.256484999999998],[77.418176,23.256484999999998],[77.418176,23.25667],[77.41787,23.25667],[77.41787,23.2563]]]},"properties":{"id":"parcel-demo-010","property_id":"DRS-BPL-DEMO-010","plot_number":"BPL-DEMO-1010","survey_number":"SYN-0010","owner_name":"Kavita Sharma","land_use":"Religious","property_type":"Religious","area_m2":1711.98,"status":"SYNTHETIC_DEMO","city":"Bhopal","state":"Madhya Pradesh","country":"India","centroid_lon":77.4180868,"centroid_lat":23.2564619,"shape_type":"L","row":"A","_source":"SYNTHETIC_DEMO","_disclaimer":"Synthetic prototype data — not an official land record.","_datasetLabel":"Synthetic Demo Dataset — Bhopal"}},{"type":"Feature","geometry":{"type":"Polygon","coordinates":[[[77.4184,23.2563],[77.41891,23.2563],[77.41891,23.25667],[77.4184,23.25667],[77.4184,23.2563]]]},"properties":{"id":"parcel-demo-011","property_id":"DRS-BPL-DEMO-011","plot_number":"BPL-DEMO-1011","survey_number":"SYN-0011","owner_name":"Deepak Joshi","land_use":"Residential","property_type":"Residential","area_m2":2139.98,"status":"SYNTHETIC_DEMO","city":"Bhopal","state":"Madhya Pradesh","country":"India","centroid_lon":77.418655,"centroid_lat":23.256485,"shape_type":"rect","row":"A","_source":"SYNTHETIC_DEMO","_disclaimer":"Synthetic prototype data — not an official land record.","_datasetLabel":"Synthetic Demo Dataset — Bhopal"}},{"type":"Feature","geometry":{"type":"Polygon","coordinates":[[[77.41893,23.2563],[77.41944,23.2563],[77.41944,23.25667],[77.41893,23.25667],[77.41893,23.2563]]]},"properties":{"id":"parcel-demo-012","property_id":"DRS-BPL-DEMO-012","plot_number":"BPL-DEMO-1012","survey_number":"SYN-0012","owner_name":"Sunita Singh","land_use":"Residential","property_type":"Residential","area_m2":2139.98,"status":"SYNTHETIC_DEMO","city":"Bhopal","state":"Madhya Pradesh","country":"India","centroid_lon":77.419185,"centroid_lat":23.256485,"shape_type":"rect","row":"A","_source":"SYNTHETIC_DEMO","_disclaimer":"Synthetic prototype data — not an official land record.","_datasetLabel":"Synthetic Demo Dataset — Bhopal"}},{"type":"Feature","geometry":{"type":"Polygon","coordinates":[[[77.41946,23.2563],[77.41997,23.25633],[77.41994000000001,23.25667],[77.41949,23.25664],[77.41946,23.2563]]]},"properties":{"id":"parcel-demo-013","property_id":"DRS-BPL-DEMO-013","plot_number":"BPL-DEMO-1013","survey_number":"SYN-0013","owner_name":"Vikram Rao","land_use":"Residential","property_type":"Residential","area_m2":1850.79,"status":"SYNTHETIC_DEMO","city":"Bhopal","state":"Madhya Pradesh","country":"India","centroid_lon":77.4197154,"centroid_lat":23.2564815,"shape_type":"irr","row":"A","_source":"SYNTHETIC_DEMO","_disclaimer":"Synthetic prototype data — not an official land record.","_datasetLabel":"Synthetic Demo Dataset — Bhopal"}},{"type":"Feature","geometry":{"type":"Polygon","coordinates":[[[77.41999,23.2563],[77.4205,23.2563],[77.4205,23.25667],[77.41999,23.25667],[77.41999,23.2563]]]},"properties":{"id":"parcel-demo-014","property_id":"DRS-BPL-DEMO-014","plot_number":"BPL-DEMO-1014","survey_number":"SYN-0014","owner_name":"Meera Agarwal","land_use":"Residential","property_type":"Residential","area_m2":2139.98,"status":"SYNTHETIC_DEMO","city":"Bhopal","state":"Madhya Pradesh","country":"India","centroid_lon":77.420245,"centroid_lat":23.256485,"shape_type":"rect","row":"A","_source":"SYNTHETIC_DEMO","_disclaimer":"Synthetic prototype data — not an official land record.","_datasetLabel":"Synthetic Demo Dataset — Bhopal"}},{"type":"Feature","geometry":{"type":"Polygon","coordinates":[[[77.42052,23.2563],[77.42103,23.2563],[77.42103,23.25667],[77.42052,23.25667],[77.42052,23.2563]]]},"properties":{"id":"parcel-demo-015","property_id":"DRS-BPL-DEMO-015","plot_number":"BPL-DEMO-1015","survey_number":"SYN-0015","owner_name":"Suresh Yadav","land_use":"Commercial","property_type":"Commercial","area_m2":2139.98,"status":"SYNTHETIC_DEMO","city":"Bhopal","state":"Madhya Pradesh","country":"India","centroid_lon":77.420775,"centroid_lat":23.256485,"shape_type":"rect","row":"A","_source":"SYNTHETIC_DEMO","_disclaimer":"Synthetic prototype data — not an official land record.","_datasetLabel":"Synthetic Demo Dataset — Bhopal"}},{"type":"Feature","geometry":{"type":"Polygon","coordinates":[[[77.42105,23.2563],[77.42156,23.2563],[77.42156,23.256484999999998],[77.421356,23.256484999999998],[77.421356,23.25667],[77.42105,23.25667],[77.42105,23.2563]]]},"properties":{"id":"parcel-demo-016","property_id":"DRS-BPL-DEMO-016","plot_number":"BPL-DEMO-1016","survey_number":"SYN-0016","owner_name":"Asha Tripathi","land_use":"Commercial","property_type":"Commercial","area_m2":1711.99,"status":"SYNTHETIC_DEMO","city":"Bhopal","state":"Madhya Pradesh","country":"India","centroid_lon":77.4212668,"centroid_lat":23.2564619,"shape_type":"L","row":"A","_source":"SYNTHETIC_DEMO","_disclaimer":"Synthetic prototype data — not an official land record.","_datasetLabel":"Synthetic Demo Dataset — Bhopal"}},{"type":"Feature","geometry":{"type":"Polygon","coordinates":[[[77.42158,23.2563],[77.42209,23.2563],[77.42209,23.25667],[77.42158,23.25667],[77.42158,23.2563]]]},"properties":{"id":"parcel-demo-017","property_id":"DRS-BPL-DEMO-017","plot_number":"BPL-DEMO-1017","survey_number":"SYN-0017","owner_name":"Manish Shukla","land_use":"Mixed Use","property_type":"Mixed Use","area_m2":2139.99,"status":"SYNTHETIC_DEMO","city":"Bhopal","state":"Madhya Pradesh","country":"India","centroid_lon":77.421835,"centroid_lat":23.256485,"shape_type":"rect","row":"A","_source":"SYNTHETIC_DEMO","_disclaimer":"Synthetic prototype data — not an official land record.","_datasetLabel":"Synthetic Demo Dataset — Bhopal"}},{"type":"Feature","geometry":{"type":"Polygon","coordinates":[[[77.42211,23.2563],[77.42262,23.2563],[77.42262,23.25667],[77.42211,23.25667],[77.42211,23.2563]]]},"properties":{"id":"parcel-demo-018","property_id":"DRS-BPL-DEMO-018","plot_number":"BPL-DEMO-1018","survey_number":"SYN-0018","owner_name":"Ritu Dubey","land_use":"Mixed Use","property_type":"Mixed Use","area_m2":2139.99,"status":"SYNTHETIC_DEMO","city":"Bhopal","state":"Madhya Pradesh","country":"India","centroid_lon":77.422365,"centroid_lat":23.256485,"shape_type":"rect","row":"A","_source":"SYNTHETIC_DEMO","_disclaimer":"Synthetic prototype data — not an official land record.","_datasetLabel":"Synthetic Demo Dataset — Bhopal"}},{"type":"Feature","geometry":{"type":"Polygon","coordinates":[[[77.413315,23.25592],[77.413855,23.25592],[77.413855,23.25627],[77.413315,23.25627],[77.413315,23.25592]]]},"properties":{"id":"parcel-demo-019","property_id":"DRS-BPL-DEMO-019","plot_number":"BPL-DEMO-1019","survey_number":"SYN-0019","owner_name":"Anil Kumar","land_use":"Educational","property_type":"Educational","area_m2":2143.37,"status":"SYNTHETIC_DEMO","city":"Bhopal","state":"Madhya Pradesh","country":"India","centroid_lon":77.413585,"centroid_lat":23.256095,"shape_type":"rect","row":"B","_source":"SYNTHETIC_DEMO","_disclaimer":"Synthetic prototype data — not an official land record.","_datasetLabel":"Synthetic Demo Dataset — Bhopal"}},{"type":"Feature","geometry":{"type":"Polygon","coordinates":[[[77.413875,23.25592],[77.414415,23.25592],[77.414415,23.25627],[77.413875,23.25627],[77.413875,23.25592]]]},"properties":{"id":"parcel-demo-020","property_id":"DRS-BPL-DEMO-020","plot_number":"BPL-DEMO-1020","survey_number":"SYN-0020","owner_name":"Sheela Pandey","land_use":"Religious","property_type":"Religious","area_m2":2143.38,"status":"SYNTHETIC_DEMO","city":"Bhopal","state":"Madhya Pradesh","country":"India","centroid_lon":77.414145,"centroid_lat":23.256095,"shape_type":"rect","row":"B","_source":"SYNTHETIC_DEMO","_disclaimer":"Synthetic prototype data — not an official land record.","_datasetLabel":"Synthetic Demo Dataset — Bhopal"}},{"type":"Feature","geometry":{"type":"Polygon","coordinates":[[[77.414435,23.25592],[77.414975,23.25592],[77.414975,23.25627],[77.414435,23.25627],[77.414435,23.25592]]]},"properties":{"id":"parcel-demo-021","property_id":"DRS-BPL-DEMO-021","plot_number":"BPL-DEMO-1021","survey_number":"SYN-0021","owner_name":"Pramod Srivastava","land_use":"Residential","property_type":"Residential","area_m2":2143.38,"status":"SYNTHETIC_DEMO","city":"Bhopal","state":"Madhya Pradesh","country":"India","centroid_lon":77.414705,"centroid_lat":23.256095,"shape_type":"rect","row":"B","_source":"SYNTHETIC_DEMO","_disclaimer":"Synthetic prototype data — not an official land record.","_datasetLabel":"Synthetic Demo Dataset — Bhopal"}},{"type":"Feature","geometry":{"type":"Polygon","coordinates":[[[77.414995,23.25592],[77.415535,23.25592],[77.415535,23.25627],[77.414995,23.25627],[77.414995,23.25592]]]},"properties":{"id":"parcel-demo-022","property_id":"DRS-BPL-DEMO-022","plot_number":"BPL-DEMO-1022","survey_number":"SYN-0022","owner_name":"Geeta Dixit","land_use":"Residential","property_type":"Residential","area_m2":2143.38,"status":"SYNTHETIC_DEMO","city":"Bhopal","state":"Madhya Pradesh","country":"India","centroid_lon":77.415265,"centroid_lat":23.256095,"shape_type":"rect","row":"B","_source":"SYNTHETIC_DEMO","_disclaimer":"Synthetic prototype data — not an official land record.","_datasetLabel":"Synthetic Demo Dataset — Bhopal"}},{"type":"Feature","geometry":{"type":"Polygon","coordinates":[[[77.415555,23.25592],[77.416095,23.25592],[77.416095,23.256095000000002],[77.415879,23.256095000000002],[77.415879,23.25627],[77.415555,23.25627],[77.415555,23.25592]]]},"properties":{"id":"parcel-demo-023","property_id":"DRS-BPL-DEMO-023","plot_number":"BPL-DEMO-1023","survey_number":"SYN-0023","owner_name":"Satish Verma","land_use":"Residential","property_type":"Residential","area_m2":1714.7,"status":"SYNTHETIC_DEMO","city":"Bhopal","state":"Madhya Pradesh","country":"India","centroid_lon":77.4157845,"centroid_lat":23.2560731,"shape_type":"L","row":"B","_source":"SYNTHETIC_DEMO","_disclaimer":"Synthetic prototype data — not an official land record.","_datasetLabel":"Synthetic Demo Dataset — Bhopal"}},{"type":"Feature","geometry":{"type":"Polygon","coordinates":[[[77.416115,23.25592],[77.416655,23.25592],[77.416655,23.25627],[77.416115,23.25627],[77.416115,23.25592]]]},"properties":{"id":"parcel-demo-024","property_id":"DRS-BPL-DEMO-024","plot_number":"BPL-DEMO-1024","survey_number":"SYN-0024","owner_name":"Lata Yadav","land_use":"Residential","property_type":"Residential","area_m2":2143.38,"status":"SYNTHETIC_DEMO","city":"Bhopal","state":"Madhya Pradesh","country":"India","centroid_lon":77.416385,"centroid_lat":23.256095,"shape_type":"rect","row":"B","_source":"SYNTHETIC_DEMO","_disclaimer":"Synthetic prototype data — not an official land record.","_datasetLabel":"Synthetic Demo Dataset — Bhopal"}},{"type":"Feature","geometry":{"type":"Polygon","coordinates":[[[77.416675,23.25592],[77.417215,23.25592],[77.417215,23.25627],[77.416675,23.25627],[77.416675,23.25592]]]},"properties":{"id":"parcel-demo-025","property_id":"DRS-BPL-DEMO-025","plot_number":"BPL-DEMO-1025","survey_number":"SYN-0025","owner_name":"Rohit Chauhan","land_use":"Commercial","property_type":"Commercial","area_m2":2143.38,"status":"SYNTHETIC_DEMO","city":"Bhopal","state":"Madhya Pradesh","country":"India","centroid_lon":77.416945,"centroid_lat":23.256095,"shape_type":"rect","row":"B","_source":"SYNTHETIC_DEMO","_disclaimer":"Synthetic prototype data — not an official land record.","_datasetLabel":"Synthetic Demo Dataset — Bhopal"}},{"type":"Feature","geometry":{"type":"Polygon","coordinates":[[[77.417235,23.25592],[77.417775,23.25595],[77.41774500000001,23.25627],[77.417265,23.256240000000002],[77.417235,23.25592]]]},"properties":{"id":"parcel-demo-026","property_id":"DRS-BPL-DEMO-026","plot_number":"BPL-DEMO-1026","survey_number":"SYN-0026","owner_name":"Uma Tiwari","land_use":"Commercial","property_type":"Commercial","area_m2":1850.8,"status":"SYNTHETIC_DEMO","city":"Bhopal","state":"Madhya Pradesh","country":"India","centroid_lon":77.4175055,"centroid_lat":23.2560919,"shape_type":"irr","row":"B","_source":"SYNTHETIC_DEMO","_disclaimer":"Synthetic prototype data — not an official land record.","_datasetLabel":"Synthetic Demo Dataset — Bhopal"}},{"type":"Feature","geometry":{"type":"Polygon","coordinates":[[[77.417795,23.25592],[77.418335,23.25592],[77.418335,23.25627],[77.417795,23.25627],[77.417795,23.25592]]]},"properties":{"id":"parcel-demo-027","property_id":"DRS-BPL-DEMO-027","plot_number":"BPL-DEMO-1027","survey_number":"SYN-0027","owner_name":"Yashwant Rao","land_use":"Mixed Use","property_type":"Mixed Use","area_m2":2143.39,"status":"SYNTHETIC_DEMO","city":"Bhopal","state":"Madhya Pradesh","country":"India","centroid_lon":77.418065,"centroid_lat":23.256095,"shape_type":"rect","row":"B","_source":"SYNTHETIC_DEMO","_disclaimer":"Synthetic prototype data — not an official land record.","_datasetLabel":"Synthetic Demo Dataset — Bhopal"}},{"type":"Feature","geometry":{"type":"Polygon","coordinates":[[[77.418355,23.25592],[77.418895,23.25592],[77.418895,23.25627],[77.418355,23.25627],[77.418355,23.25592]]]},"properties":{"id":"parcel-demo-028","property_id":"DRS-BPL-DEMO-028","plot_number":"BPL-DEMO-1028","survey_number":"SYN-0028","owner_name":"Savita Jain","land_use":"Mixed Use","property_type":"Mixed Use","area_m2":2143.39,"status":"SYNTHETIC_DEMO","city":"Bhopal","state":"Madhya Pradesh","country":"India","centroid_lon":77.418625,"centroid_lat":23.256095,"shape_type":"rect","row":"B","_source":"SYNTHETIC_DEMO","_disclaimer":"Synthetic prototype data — not an official land record.","_datasetLabel":"Synthetic Demo Dataset — Bhopal"}},{"type":"Feature","geometry":{"type":"Polygon","coordinates":[[[77.418915,23.25592],[77.419455,23.25592],[77.419455,23.25627],[77.418915,23.25627],[77.418915,23.25592]]]},"properties":{"id":"parcel-demo-029","property_id":"DRS-BPL-DEMO-029","plot_number":"BPL-DEMO-1029","survey_number":"SYN-0029","owner_name":"Narendra Mishra","land_use":"Educational","property_type":"Educational","area_m2":2143.39,"status":"SYNTHETIC_DEMO","city":"Bhopal","state":"Madhya Pradesh","country":"India","centroid_lon":77.419185,"centroid_lat":23.256095,"shape_type":"rect","row":"B","_source":"SYNTHETIC_DEMO","_disclaimer":"Synthetic prototype data — not an official land record.","_datasetLabel":"Synthetic Demo Dataset — Bhopal"}},{"type":"Feature","geometry":{"type":"Polygon","coordinates":[[[77.419475,23.25592],[77.420015,23.25592],[77.420015,23.256095000000002],[77.41979900000001,23.256095000000002],[77.41979900000001,23.25627],[77.419475,23.25627],[77.419475,23.25592]]]},"properties":{"id":"parcel-demo-030","property_id":"DRS-BPL-DEMO-030","plot_number":"BPL-DEMO-1030","survey_number":"SYN-0030","owner_name":"Rekha Gupta","land_use":"Religious","property_type":"Religious","area_m2":1714.71,"status":"SYNTHETIC_DEMO","city":"Bhopal","state":"Madhya Pradesh","country":"India","centroid_lon":77.4197045,"centroid_lat":23.2560731,"shape_type":"L","row":"B","_source":"SYNTHETIC_DEMO","_disclaimer":"Synthetic prototype data — not an official land record.","_datasetLabel":"Synthetic Demo Dataset — Bhopal"}},{"type":"Feature","geometry":{"type":"Polygon","coordinates":[[[77.420035,23.25592],[77.420575,23.25592],[77.420575,23.25627],[77.420035,23.25627],[77.420035,23.25592]]]},"properties":{"id":"parcel-demo-031","property_id":"DRS-BPL-DEMO-031","plot_number":"BPL-DEMO-1031","survey_number":"SYN-0031","owner_name":"Devendra Singh","land_use":"Residential","property_type":"Residential","area_m2":2143.39,"status":"SYNTHETIC_DEMO","city":"Bhopal","state":"Madhya Pradesh","country":"India","centroid_lon":77.420305,"centroid_lat":23.256095,"shape_type":"rect","row":"B","_source":"SYNTHETIC_DEMO","_disclaimer":"Synthetic prototype data — not an official land record.","_datasetLabel":"Synthetic Demo Dataset — Bhopal"}},{"type":"Feature","geometry":{"type":"Polygon","coordinates":[[[77.420595,23.25592],[77.421135,23.25592],[77.421135,23.25627],[77.420595,23.25627],[77.420595,23.25592]]]},"properties":{"id":"parcel-demo-032","property_id":"DRS-BPL-DEMO-032","plot_number":"BPL-DEMO-1032","survey_number":"SYN-0032","owner_name":"Suneel Kumar","land_use":"Residential","property_type":"Residential","area_m2":2143.39,"status":"SYNTHETIC_DEMO","city":"Bhopal","state":"Madhya Pradesh","country":"India","centroid_lon":77.420865,"centroid_lat":23.256095,"shape_type":"rect","row":"B","_source":"SYNTHETIC_DEMO","_disclaimer":"Synthetic prototype data — not an official land record.","_datasetLabel":"Synthetic Demo Dataset — Bhopal"}},{"type":"Feature","geometry":{"type":"Polygon","coordinates":[[[77.421155,23.25592],[77.421695,23.25592],[77.421695,23.25627],[77.421155,23.25627],[77.421155,23.25592]]]},"properties":{"id":"parcel-demo-033","property_id":"DRS-BPL-DEMO-033","plot_number":"BPL-DEMO-1033","survey_number":"SYN-0033","owner_name":"Preeti Sharma","land_use":"Residential","property_type":"Residential","area_m2":2143.39,"status":"SYNTHETIC_DEMO","city":"Bhopal","state":"Madhya Pradesh","country":"India","centroid_lon":77.421425,"centroid_lat":23.256095,"shape_type":"rect","row":"B","_source":"SYNTHETIC_DEMO","_disclaimer":"Synthetic prototype data — not an official land record.","_datasetLabel":"Synthetic Demo Dataset — Bhopal"}},{"type":"Feature","geometry":{"type":"Polygon","coordinates":[[[77.421715,23.25592],[77.422255,23.25592],[77.422255,23.25627],[77.421715,23.25627],[77.421715,23.25592]]]},"properties":{"id":"parcel-demo-034","property_id":"DRS-BPL-DEMO-034","plot_number":"BPL-DEMO-1034","survey_number":"SYN-0034","owner_name":"Manoj Patel","land_use":"Residential","property_type":"Residential","area_m2":2143.4,"status":"SYNTHETIC_DEMO","city":"Bhopal","state":"Madhya Pradesh","country":"India","centroid_lon":77.421985,"centroid_lat":23.256095,"shape_type":"rect","row":"B","_source":"SYNTHETIC_DEMO","_disclaimer":"Synthetic prototype data — not an official land record.","_datasetLabel":"Synthetic Demo Dataset — Bhopal"}},{"type":"Feature","geometry":{"type":"Polygon","coordinates":[[[77.422275,23.25592],[77.422815,23.25592],[77.422815,23.25627],[77.422275,23.25627],[77.422275,23.25592]]]},"properties":{"id":"parcel-demo-035","property_id":"DRS-BPL-DEMO-035","plot_number":"BPL-DEMO-1035","survey_number":"SYN-0035","owner_name":"Shashi Yadav","land_use":"Commercial","property_type":"Commercial","area_m2":2143.4,"status":"SYNTHETIC_DEMO","city":"Bhopal","state":"Madhya Pradesh","country":"India","centroid_lon":77.422545,"centroid_lat":23.256095,"shape_type":"rect","row":"B","_source":"SYNTHETIC_DEMO","_disclaimer":"Synthetic prototype data — not an official land record.","_datasetLabel":"Synthetic Demo Dataset — Bhopal"}}]}