{
  "type": "FeatureCollection",
  "metadata": {
    "_source": "AI_DERIVED_DEMO",
    "_disclaimer": "Prototype placeholder geometry. Not generated by model inference.",
    "description": "DEMO DATA ONLY — placeholder building footprint polygons manually drawn for UI prototyping. These are NOT the output of any AI model, segmentation pipeline, or real inference. Do not use for any cadastral, legal, or analytical purpose.",
    "model": "DEMO — not from real inference",
    "specTask": "AI Building Footprint Segmentation — SIH WebGIS"
  },
  "features": [
    {
      "type": "Feature",
      "geometry": {
        "type": "Polygon",
        "coordinates": [
          [
            [77.414850, 23.256335],
            [77.415040, 23.256335],
            [77.415040, 23.256220],
            [77.414960, 23.256220],
            [77.414960, 23.256125],
            [77.414850, 23.256125],
            [77.414850, 23.256335]
          ]
        ]
      },
      "properties": {
        "id": "ai-bld-001a",
        "feature_type": "building_footprint",
        "confidence": 0.94,
        "area_m2": 395,
        "model": "DEMO — not from real inference",
        "model_version": "0.2-proto",
        "dataset": "Bhopal UAV Prototype",
        "associated_parcel_id": "parcel-bpl-001",
        "building_class": "Residential Main Structure",
        "_source": "AI_DERIVED_DEMO",
        "_disclaimer": "Prototype placeholder geometry. Not generated by model inference.",
        "_geometry_note": "L-shaped main building roof footprint. Extends ~2.6m north beyond parcel DRS-BPL-00101 boundary."
      }
    },
    {
      "type": "Feature",
      "geometry": {
        "type": "Polygon",
        "coordinates": [
          [
            [77.414990, 23.256200],
            [77.415065, 23.256200],
            [77.415065, 23.256110],
            [77.414990, 23.256110],
            [77.414990, 23.256200]
          ]
        ]
      },
      "properties": {
        "id": "ai-bld-001b",
        "feature_type": "building_footprint",
        "confidence": 0.88,
        "area_m2": 110,
        "model": "DEMO — not from real inference",
        "model_version": "0.2-proto",
        "dataset": "Bhopal UAV Prototype",
        "associated_parcel_id": "parcel-bpl-001",
        "building_class": "Residential Annex",
        "_source": "AI_DERIVED_DEMO",
        "_disclaimer": "Prototype placeholder geometry. Not generated by model inference."
      }
    },
    {
      "type": "Feature",
      "geometry": {
        "type": "Polygon",
        "coordinates": [
          [
            [77.417395, 23.256325],
            [77.417585, 23.256325],
            [77.417585, 23.256185],
            [77.417625, 23.256185],
            [77.417625, 23.256100],
            [77.417395, 23.256100],
            [77.417395, 23.256325]
          ]
        ]
      },
      "properties": {
        "id": "ai-bld-002a",
        "feature_type": "building_footprint",
        "confidence": 0.92,
        "area_m2": 420,
        "model": "DEMO — not from real inference",
        "model_version": "0.2-proto",
        "dataset": "Bhopal UAV Prototype",
        "associated_parcel_id": "parcel-bpl-002",
        "building_class": "Residential Main Structure",
        "_source": "AI_DERIVED_DEMO",
        "_disclaimer": "Prototype placeholder geometry. Not generated by model inference.",
        "_geometry_note": "Notched building roof footprint. Extends ~2.9m east beyond parcel DRS-BPL-00102 boundary."
      }
    },
    {
      "type": "Feature",
      "geometry": {
        "type": "Polygon",
        "coordinates": [
          [
            [77.417410, 23.256190],
            [77.417480, 23.256190],
            [77.417480, 23.256115],
            [77.417410, 23.256115],
            [77.417410, 23.256190]
          ]
        ]
      },
      "properties": {
        "id": "ai-bld-002b",
        "feature_type": "building_footprint",
        "confidence": 0.85,
        "area_m2": 95,
        "model": "DEMO — not from real inference",
        "model_version": "0.2-proto",
        "dataset": "Bhopal UAV Prototype",
        "associated_parcel_id": "parcel-bpl-002",
        "building_class": "Outbuilding",
        "_source": "AI_DERIVED_DEMO",
        "_disclaimer": "Prototype placeholder geometry. Not generated by model inference."
      }
    },
    {
      "type": "Feature",
      "geometry": {
        "type": "Polygon",
        "coordinates": [
          [
            [77.419905, 23.256300],
            [77.420150, 23.256300],
            [77.420150, 23.256110],
            [77.419905, 23.256110],
            [77.419905, 23.256300]
          ]
        ]
      },
      "properties": {
        "id": "ai-bld-003",
        "feature_type": "building_footprint",
        "confidence": 0.95,
        "area_m2": 490,
        "model": "DEMO — not from real inference",
        "model_version": "0.2-proto",
        "dataset": "Bhopal UAV Prototype",
        "associated_parcel_id": "parcel-bpl-003",
        "building_class": "Commercial Complex",
        "_source": "AI_DERIVED_DEMO",
        "_disclaimer": "Prototype placeholder geometry. Not generated by model inference."
      }
    }
  ]
}
