{
  "type": "FeatureCollection",
  "generator": "overpass-turbo",
  "copyright": "The data included in this document is from www.openstreetmap.org. The data is made available under ODbL.",
  "timestamp": "2026-09-06T09:14:35Z",
  "features": [
    {
      "type": "Feature",
      "properties": {
        "@id": "node/1347506447",
        "amenity": "drinking_water"
      },
      "geometry": {
        "type": "Point",
        "coordinates": [
          77.0646866,
          28.495533
        ]
      },
      "id": "node/1347506447"
    },
    {
      "type": "Feature",
      "properties": {
        "@id": "node/3732928247",
        "amenity": "drinking_water",
        "name": "Main building water cooler",
        "note": "cold water"
      },
      "geometry": {
        "type": "Point",
        "coordinates": [
          77.1924054,
          28.5448099
        ]
      },
      "id": "node/3732928247"
    },
    {
      "type": "Feature",
      "properties": {
        "@id": "node/4907285321",
        "amenity": "drinking_water",
        "check_date": "2023-08-27",
        "man_made": "water_tap",
        "name": "Drinking Water Station",
        "name:en": "Drinking Water Station"
      },
      "geometry": {
        "type": "Point",
        "coordinates": [
          77.2192801,
          28.6434
        ]
      },
      "id": "node/4907285321"
    },
    {
      "type": "Feature",
      "properties": {
        "@id": "node/4907664321",
        "amenity": "drinking_water",
        "name": "Drinking Water Station",
        "name:en": "Drinking Water Station"
      },
      "geometry": {
        "type": "Point",
        "coordinates": [
          77.2064206,
          28.6282709
        ]
      },
      "id": "node/4907664321"
    },
    {
      "type": "Feature",
      "properties": {
        "@id": "node/4908532222",
        "addr:postcode": "110006",
        "amenity": "drinking_water",
        "name": "Drinking Water Station",
        "name:en": "Drinking Water Station"
      },
      "geometry": {
        "type": "Point",
        "coordinates": [
          77.2347281,
          28.65166
        ]
      },
      "id": "node/4908532222"
    },
    {
      "type": "Feature",
      "properties": {
        "@id": "node/4908610221",
        "amenity": "drinking_water"
      },
      "geometry": {
        "type": "Point",
        "coordinates": [
          77.2456619,
          28.6390079
        ]
      },
      "id": "node/4908610221"
    },
    {
      "type": "Feature",
      "properties": {
        "@id": "node/4908617324",
        "amenity": "drinking_water"
      },
      "geometry": {
        "type": "Point",
        "coordinates": [
          77.2510218,
          28.6402763
        ]
      },
      "id": "node/4908617324"
    },
    {
      "type": "Feature",
      "properties": {
        "@id": "node/5068266587",
        "amenity": "drinking_water"
      },
      "geometry": {
        "type": "Point",
        "coordinates": [
          77.2254655,
          28.6338242
        ]
      },
      "id": "node/5068266587"
    },
    {
      "type": "Feature",
      "properties": {
        "@id": "node/5068271032",
        "amenity": "drinking_water"
      },
      "geometry": {
        "type": "Point",
        "coordinates": [
          77.2255519,
          28.6339759
        ]
      },
      "id": "node/5068271032"
    },
    {
      "type": "Feature",
      "properties": {
        "@id": "node/5068271988",
        "amenity": "drinking_water"
      },
      "geometry": {
        "type": "Point",
        "coordinates": [
          77.2272004,
          28.6330065
        ]
      },
      "id": "node/5068271988"
    },
    {
      "type": "Feature",
      "properties": {
        "@id": "node/5068273746",
        "amenity": "drinking_water"
      },
      "geometry": {
        "type": "Point",
        "coordinates": [
          77.2272681,
          28.6331602
        ]
      },
      "id": "node/5068273746"
    },
    {
      "type": "Feature",
      "properties": {
        "@id": "node/5131701519",
        "amenity": "drinking_water"
      },
      "geometry": {
        "type": "Point",
        "coordinates": [
          77.229847,
          28.5438089
        ]
      },
      "id": "node/5131701519"
    },
    {
      "type": "Feature",
      "properties": {
        "@id": "node/5133195775",
        "amenity": "drinking_water",
        "check_date": "2023-12-22",
        "man_made": "water_tap"
      },
      "geometry": {
        "type": "Point",
        "coordinates": [
          77.217962,
          28.5429724
        ]
      },
      "id": "node/5133195775"
    },
    {
      "type": "Feature",
      "properties": {
        "@id": "node/5170823787",
        "amenity": "drinking_water"
      },
      "geometry": {
        "type": "Point",
        "coordinates": [
          77.0915977,
          28.5749568
        ]
      },
      "id": "node/5170823787"
    },
    {
      "type": "Feature",
      "properties": {
        "@id": "node/5172862618",
        "amenity": "drinking_water"
      },
      "geometry": {
        "type": "Point",
        "coordinates": [
          77.0734583,
          28.5874227
        ]
      },
      "id": "node/5172862618"
    },
    {
      "type": "Feature",
      "properties": {
        "@id": "node/5247558832",
        "amenity": "drinking_water"
      },
      "geometry": {
        "type": "Point",
        "coordinates": [
          77.1861712,
          28.5255382
        ]
      },
      "id": "node/5247558832"
    },
    {
      "type": "Feature",
      "properties": {
        "@id": "node/5648776815",
        "amenity": "drinking_water"
      },
      "geometry": {
        "type": "Point",
        "coordinates": [
          77.2275744,
          28.5753103
        ]
      },
      "id": "node/5648776815"
    },
    {
      "type": "Feature",
      "properties": {
        "@id": "node/5884779004",
        "amenity": "drinking_water"
      },
      "geometry": {
        "type": "Point",
        "coordinates": [
          77.172914,
          28.5833607
        ]
      },
      "id": "node/5884779004"
    },
    {
      "type": "Feature",
      "properties": {
        "@id": "node/5884780778",
        "amenity": "drinking_water"
      },
      "geometry": {
        "type": "Point",
        "coordinates": [
          77.1722287,
          28.5843236
        ]
      },
      "id": "node/5884780778"
    },
    {
      "type": "Feature",
      "properties": {
        "@id": "node/5960793690",
        "amenity": "drinking_water",
        "drinking_water": "yes",
        "name": "new health juice and shake "
      },
      "geometry": {
        "type": "Point",
        "coordinates": [
          77.2169906,
          28.5339502
        ]
      },
      "id": "node/5960793690"
    },
    {
      "type": "Feature",
      "properties": {
        "@id": "node/5960793692",
        "amenity": "drinking_water",
        "drinking_water": "yes",
        "name": "soda shop"
      },
      "geometry": {
        "type": "Point",
        "coordinates": [
          77.21703,
          28.5341525
        ]
      },
      "id": "node/5960793692"
    },
    {
      "type": "Feature",
      "properties": {
        "@id": "node/5960793704",
        "amenity": "drinking_water",
        "drinking_water": "yes",
        "name": "baba juice "
      },
      "geometry": {
        "type": "Point",
        "coordinates": [
          77.2183301,
          28.5350793
        ]
      },
      "id": "node/5960793704"
    },
    {
      "type": "Feature",
      "properties": {
        "@id": "node/5960810289",
        "amenity": "drinking_water",
        "name": "water supply"
      },
      "geometry": {
        "type": "Point",
        "coordinates": [
          77.2204369,
          28.5345996
        ]
      },
      "id": "node/5960810289"
    },
    {
      "type": "Feature",
      "properties": {
        "@id": "node/5998710658",
        "amenity": "drinking_water"
      },
      "geometry": {
        "type": "Point",
        "coordinates": [
          77.2103074,
          28.5491933
        ]
      },
      "id": "node/5998710658"
    },
    {
      "type": "Feature",
      "properties": {
        "@id": "node/6015475986",
        "amenity": "drinking_water",
        "description": "This is outside the boundary wall."
      },
      "geometry": {
        "type": "Point",
        "coordinates": [
          77.2442536,
          28.5689349
        ]
      },
      "id": "node/6015475986"
    },
    {
      "type": "Feature",
      "properties": {
        "@id": "node/6055980897",
        "amenity": "drinking_water"
      },
      "geometry": {
        "type": "Point",
        "coordinates": [
          77.2318716,
          28.539565
        ]
      },
      "id": "node/6055980897"
    },
    {
      "type": "Feature",
      "properties": {
        "@id": "node/6055980899",
        "amenity": "drinking_water"
      },
      "geometry": {
        "type": "Point",
        "coordinates": [
          77.2457644,
          28.5753881
        ]
      },
      "id": "node/6055980899"
    },
    {
      "type": "Feature",
      "properties": {
        "@id": "node/6166529730",
        "amenity": "drinking_water"
      },
      "geometry": {
        "type": "Point",
        "coordinates": [
          77.2326547,
          28.6497717
        ]
      },
      "id": "node/6166529730"
    },
    {
      "type": "Feature",
      "properties": {
        "@id": "node/6166529731",
        "amenity": "drinking_water"
      },
      "geometry": {
        "type": "Point",
        "coordinates": [
          77.2340857,
          28.6498234
        ]
      },
      "id": "node/6166529731"
    },
    {
      "type": "Feature",
      "properties": {
        "@id": "node/6342954046",
        "amenity": "drinking_water"
      },
      "geometry": {
        "type": "Point",
        "coordinates": [
          77.2459098,
          28.572886
        ]
      },
      "id": "node/6342954046"
    },
    {
      "type": "Feature",
      "properties": {
        "@id": "node/6349285038",
        "amenity": "drinking_water"
      },
      "geometry": {
        "type": "Point",
        "coordinates": [
          77.2184686,
          28.542608
        ]
      },
      "id": "node/6349285038"
    },
    {
      "type": "Feature",
      "properties": {
        "@id": "node/6459196235",
        "amenity": "drinking_water",
        "check_date": "2026-05-08",
        "man_made": "water_tap"
      },
      "geometry": {
        "type": "Point",
        "coordinates": [
          77.2577155,
          28.5404405
        ]
      },
      "id": "node/6459196235"
    },
    {
      "type": "Feature",
      "properties": {
        "@id": "node/6490310071",
        "amenity": "drinking_water"
      },
      "geometry": {
        "type": "Point",
        "coordinates": [
          77.2349052,
          28.5229537
        ]
      },
      "id": "node/6490310071"
    },
    {
      "type": "Feature",
      "properties": {
        "@id": "node/6535485508",
        "amenity": "drinking_water"
      },
      "geometry": {
        "type": "Point",
        "coordinates": [
          77.2438171,
          28.5457359
        ]
      },
      "id": "node/6535485508"
    },
    {
      "type": "Feature",
      "properties": {
        "@id": "node/6535485509",
        "amenity": "drinking_water"
      },
      "geometry": {
        "type": "Point",
        "coordinates": [
          77.2438973,
          28.5455253
        ]
      },
      "id": "node/6535485509"
    },
    {
      "type": "Feature",
      "properties": {
        "@id": "node/6544857037",
        "amenity": "drinking_water"
      },
      "geometry": {
        "type": "Point",
        "coordinates": [
          77.2543581,
          28.5423591
        ]
      },
      "id": "node/6544857037"
    },
    {
      "type": "Feature",
      "properties": {
        "@id": "node/6553126786",
        "amenity": "drinking_water"
      },
      "geometry": {
        "type": "Point",
        "coordinates": [
          77.2358486,
          28.5689757
        ]
      },
      "id": "node/6553126786"
    },
    {
      "type": "Feature",
      "properties": {
        "@id": "node/6681072788",
        "amenity": "drinking_water"
      },
      "geometry": {
        "type": "Point",
        "coordinates": [
          77.1680214,
          28.5104724
        ]
      },
      "id": "node/6681072788"
    },
    {
      "type": "Feature",
      "properties": {
        "@id": "node/6681091972",
        "amenity": "drinking_water"
      },
      "geometry": {
        "type": "Point",
        "coordinates": [
          77.2017878,
          28.5204397
        ]
      },
      "id": "node/6681091972"
    },
    {
      "type": "Feature",
      "properties": {
        "@id": "node/6739048220",
        "amenity": "drinking_water"
      },
      "geometry": {
        "type": "Point",
        "coordinates": [
          77.222679,
          28.5612218
        ]
      },
      "id": "node/6739048220"
    },
    {
      "type": "Feature",
      "properties": {
        "@id": "node/6812482596",
        "amenity": "drinking_water"
      },
      "geometry": {
        "type": "Point",
        "coordinates": [
          77.2075862,
          28.5192971
        ]
      },
      "id": "node/6812482596"
    },
    {
      "type": "Feature",
      "properties": {
        "@id": "node/6908305667",
        "amenity": "drinking_water"
      },
      "geometry": {
        "type": "Point",
        "coordinates": [
          77.1840358,
          28.5704528
        ]
      },
      "id": "node/6908305667"
    },
    {
      "type": "Feature",
      "properties": {
        "@id": "node/7082466120",
        "amenity": "drinking_water"
      },
      "geometry": {
        "type": "Point",
        "coordinates": [
          77.2674355,
          28.5362618
        ]
      },
      "id": "node/7082466120"
    },
    {
      "type": "Feature",
      "properties": {
        "@id": "node/7108590420",
        "amenity": "drinking_water"
      },
      "geometry": {
        "type": "Point",
        "coordinates": [
          77.2632303,
          28.5758537
        ]
      },
      "id": "node/7108590420"
    },
    {
      "type": "Feature",
      "properties": {
        "@id": "node/7191285074",
        "amenity": "drinking_water"
      },
      "geometry": {
        "type": "Point",
        "coordinates": [
          77.265596,
          28.6028113
        ]
      },
      "id": "node/7191285074"
    },
    {
      "type": "Feature",
      "properties": {
        "@id": "node/7274152202",
        "amenity": "drinking_water",
        "level": "0"
      },
      "geometry": {
        "type": "Point",
        "coordinates": [
          77.2048664,
          28.6312422
        ]
      },
      "id": "node/7274152202"
    },
    {
      "type": "Feature",
      "properties": {
        "@id": "node/7831456511",
        "amenity": "drinking_water"
      },
      "geometry": {
        "type": "Point",
        "coordinates": [
          77.2423856,
          28.555212
        ]
      },
      "id": "node/7831456511"
    },
    {
      "type": "Feature",
      "properties": {
        "@id": "node/9091109723",
        "amenity": "drinking_water",
        "man_made": "water_tap"
      },
      "geometry": {
        "type": "Point",
        "coordinates": [
          77.2408367,
          28.6377104
        ]
      },
      "id": "node/9091109723"
    },
    {
      "type": "Feature",
      "properties": {
        "@id": "node/9237329248",
        "amenity": "drinking_water"
      },
      "geometry": {
        "type": "Point",
        "coordinates": [
          77.2124628,
          28.6292365
        ]
      },
      "id": "node/9237329248"
    },
    {
      "type": "Feature",
      "properties": {
        "@id": "node/9536753695",
        "amenity": "drinking_water"
      },
      "geometry": {
        "type": "Point",
        "coordinates": [
          77.1829071,
          28.5216046
        ]
      },
      "id": "node/9536753695"
    },
    {
      "type": "Feature",
      "properties": {
        "@id": "node/9599582781",
        "amenity": "drinking_water"
      },
      "geometry": {
        "type": "Point",
        "coordinates": [
          77.2310196,
          28.62409
        ]
      },
      "id": "node/9599582781"
    },
    {
      "type": "Feature",
      "properties": {
        "@id": "node/9880572782",
        "amenity": "drinking_water"
      },
      "geometry": {
        "type": "Point",
        "coordinates": [
          77.2394186,
          28.6511482
        ]
      },
      "id": "node/9880572782"
    },
    {
      "type": "Feature",
      "properties": {
        "@id": "node/10137825297",
        "access": "yes",
        "amenity": "drinking_water",
        "bottle": "yes",
        "covered": "yes",
        "fee": "no",
        "man_made": "water_tap"
      },
      "geometry": {
        "type": "Point",
        "coordinates": [
          77.0926348,
          28.4752226
        ]
      },
      "id": "node/10137825297"
    },
    {
      "type": "Feature",
      "properties": {
        "@id": "node/10241800139",
        "amenity": "drinking_water"
      },
      "geometry": {
        "type": "Point",
        "coordinates": [
          77.220445,
          28.5915672
        ]
      },
      "id": "node/10241800139"
    },
    {
      "type": "Feature",
      "properties": {
        "@id": "node/10770460714",
        "amenity": "drinking_water"
      },
      "geometry": {
        "type": "Point",
        "coordinates": [
          77.233971,
          28.5504684
        ]
      },
      "id": "node/10770460714"
    },
    {
      "type": "Feature",
      "properties": {
        "@id": "node/10939195566",
        "amenity": "drinking_water",
        "fee": "yes",
        "indoor": "yes",
        "level": "-1",
        "name": "Pi-Lo Smart Water ATM",
        "note": "Charges ₹3 for 250ml, ₹6 for 1L",
        "opening_hours": "Mo-Su 10:00-20:00"
      },
      "geometry": {
        "type": "Point",
        "coordinates": [
          77.2190973,
          28.6323521
        ]
      },
      "id": "node/10939195566"
    },
    {
      "type": "Feature",
      "properties": {
        "@id": "node/10968495881",
        "amenity": "drinking_water"
      },
      "geometry": {
        "type": "Point",
        "coordinates": [
          77.2486905,
          28.5903091
        ]
      },
      "id": "node/10968495881"
    },
    {
      "type": "Feature",
      "properties": {
        "@id": "node/11056223117",
        "amenity": "drinking_water"
      },
      "geometry": {
        "type": "Point",
        "coordinates": [
          77.2429538,
          28.5669082
        ]
      },
      "id": "node/11056223117"
    },
    {
      "type": "Feature",
      "properties": {
        "@id": "node/11123299804",
        "amenity": "drinking_water",
        "fountain": "bubbler"
      },
      "geometry": {
        "type": "Point",
        "coordinates": [
          77.2210752,
          28.6402179
        ]
      },
      "id": "node/11123299804"
    },
    {
      "type": "Feature",
      "properties": {
        "@id": "node/11637365239",
        "addr:city": "New Delhi",
        "addr:postcode": "110001",
        "amenity": "drinking_water",
        "bottle": "yes",
        "fee": "no",
        "fountain": "bottle_refill",
        "wheelchair": "no"
      },
      "geometry": {
        "type": "Point",
        "coordinates": [
          77.2192776,
          28.6337399
        ]
      },
      "id": "node/11637365239"
    },
    {
      "type": "Feature",
      "properties": {
        "@id": "node/11696972184",
        "amenity": "drinking_water",
        "bottle": "yes"
      },
      "geometry": {
        "type": "Point",
        "coordinates": [
          77.2361717,
          28.5493206
        ]
      },
      "id": "node/11696972184"
    },
    {
      "type": "Feature",
      "properties": {
        "@id": "node/11696972194",
        "amenity": "drinking_water",
        "bottle": "yes"
      },
      "geometry": {
        "type": "Point",
        "coordinates": [
          77.2361579,
          28.5493115
        ]
      },
      "id": "node/11696972194"
    },
    {
      "type": "Feature",
      "properties": {
        "@id": "node/11703943158",
        "amenity": "drinking_water",
        "bottle": "yes",
        "fee": "yes",
        "fountain": "yes"
      },
      "geometry": {
        "type": "Point",
        "coordinates": [
          77.2194887,
          28.6313904
        ]
      },
      "id": "node/11703943158"
    },
    {
      "type": "Feature",
      "properties": {
        "@id": "node/11704272944",
        "access": "yes",
        "amenity": "drinking_water",
        "bottle": "yes",
        "indoor": "yes",
        "level": "0"
      },
      "geometry": {
        "type": "Point",
        "coordinates": [
          77.2513885,
          28.5515296
        ]
      },
      "id": "node/11704272944"
    },
    {
      "type": "Feature",
      "properties": {
        "@id": "node/11708062869",
        "amenity": "drinking_water",
        "name": "Water cooler"
      },
      "geometry": {
        "type": "Point",
        "coordinates": [
          77.1916991,
          28.5445751
        ]
      },
      "id": "node/11708062869"
    },
    {
      "type": "Feature",
      "properties": {
        "@id": "node/11710761046",
        "amenity": "drinking_water",
        "fee": "no",
        "indoor": "yes",
        "man_made": "water_tap",
        "operator": "Indian Railways",
        "wheelchair": "yes"
      },
      "geometry": {
        "type": "Point",
        "coordinates": [
          77.219098,
          28.6446062
        ]
      },
      "id": "node/11710761046"
    },
    {
      "type": "Feature",
      "properties": {
        "@id": "node/11710953224",
        "amenity": "drinking_water",
        "bottle": "yes",
        "fee": "no",
        "outdoor": "yes"
      },
      "geometry": {
        "type": "Point",
        "coordinates": [
          77.2269517,
          28.6014077
        ]
      },
      "id": "node/11710953224"
    },
    {
      "type": "Feature",
      "properties": {
        "@id": "node/11760985812",
        "amenity": "drinking_water"
      },
      "geometry": {
        "type": "Point",
        "coordinates": [
          77.2327359,
          28.6285868
        ]
      },
      "id": "node/11760985812"
    },
    {
      "type": "Feature",
      "properties": {
        "@id": "node/11766351944",
        "amenity": "drinking_water",
        "bottle": "yes",
        "covered": "no",
        "fee": "yes",
        "indoor": "no",
        "lit": "yes",
        "operator": "Sulabh International",
        "operator:wikidata": "Q3064151"
      },
      "geometry": {
        "type": "Point",
        "coordinates": [
          77.0810109,
          28.5972648
        ]
      },
      "id": "node/11766351944"
    },
    {
      "type": "Feature",
      "properties": {
        "@id": "node/11775909695",
        "amenity": "drinking_water"
      },
      "geometry": {
        "type": "Point",
        "coordinates": [
          77.2398764,
          28.5720567
        ]
      },
      "id": "node/11775909695"
    },
    {
      "type": "Feature",
      "properties": {
        "@id": "node/11837484628",
        "amenity": "drinking_water",
        "man_made": "water_tap"
      },
      "geometry": {
        "type": "Point",
        "coordinates": [
          77.1230494,
          28.5962313
        ]
      },
      "id": "node/11837484628"
    },
    {
      "type": "Feature",
      "properties": {
        "@id": "node/11876725899",
        "amenity": "drinking_water"
      },
      "geometry": {
        "type": "Point",
        "coordinates": [
          77.2523021,
          28.5870816
        ]
      },
      "id": "node/11876725899"
    },
    {
      "type": "Feature",
      "properties": {
        "@id": "node/11881256732",
        "amenity": "drinking_water",
        "indoor": "yes"
      },
      "geometry": {
        "type": "Point",
        "coordinates": [
          77.1551202,
          28.5881172
        ]
      },
      "id": "node/11881256732"
    },
    {
      "type": "Feature",
      "properties": {
        "@id": "node/11881256795",
        "amenity": "drinking_water"
      },
      "geometry": {
        "type": "Point",
        "coordinates": [
          77.1573657,
          28.5901339
        ]
      },
      "id": "node/11881256795"
    },
    {
      "type": "Feature",
      "properties": {
        "@id": "node/11888333636",
        "amenity": "drinking_water"
      },
      "geometry": {
        "type": "Point",
        "coordinates": [
          77.1120286,
          28.4841347
        ]
      },
      "id": "node/11888333636"
    },
    {
      "type": "Feature",
      "properties": {
        "@id": "node/11888341881",
        "amenity": "drinking_water"
      },
      "geometry": {
        "type": "Point",
        "coordinates": [
          77.1178663,
          28.487533
        ]
      },
      "id": "node/11888341881"
    },
    {
      "type": "Feature",
      "properties": {
        "@id": "node/11888359449",
        "amenity": "drinking_water"
      },
      "geometry": {
        "type": "Point",
        "coordinates": [
          77.1146645,
          28.4821882
        ]
      },
      "id": "node/11888359449"
    },
    {
      "type": "Feature",
      "properties": {
        "@id": "node/11901175046",
        "amenity": "drinking_water",
        "fountain": "bottle_refill"
      },
      "geometry": {
        "type": "Point",
        "coordinates": [
          77.134844,
          28.5968214
        ]
      },
      "id": "node/11901175046"
    },
    {
      "type": "Feature",
      "properties": {
        "@id": "node/11926242819",
        "access": "yes",
        "amenity": "drinking_water",
        "bottle": "yes",
        "indoor": "yes",
        "level": "0"
      },
      "geometry": {
        "type": "Point",
        "coordinates": [
          77.2372229,
          28.5527956
        ]
      },
      "id": "node/11926242819"
    },
    {
      "type": "Feature",
      "properties": {
        "@id": "node/11928019640",
        "access": "yes",
        "amenity": "drinking_water",
        "bottle": "yes",
        "level": "0",
        "man_made": "water_tap"
      },
      "geometry": {
        "type": "Point",
        "coordinates": [
          77.1241705,
          28.5985957
        ]
      },
      "id": "node/11928019640"
    },
    {
      "type": "Feature",
      "properties": {
        "@id": "node/11930142834",
        "access": "private",
        "amenity": "drinking_water",
        "level": "0"
      },
      "geometry": {
        "type": "Point",
        "coordinates": [
          77.1309248,
          28.6076635
        ]
      },
      "id": "node/11930142834"
    },
    {
      "type": "Feature",
      "properties": {
        "@id": "node/11930142847",
        "access": "private",
        "amenity": "drinking_water",
        "level": "0"
      },
      "geometry": {
        "type": "Point",
        "coordinates": [
          77.130611,
          28.6074531
        ]
      },
      "id": "node/11930142847"
    },
    {
      "type": "Feature",
      "properties": {
        "@id": "node/11934956971",
        "access": "yes",
        "amenity": "drinking_water",
        "bottle": "yes",
        "indoor": "yes",
        "level": "0"
      },
      "geometry": {
        "type": "Point",
        "coordinates": [
          77.1740386,
          28.5568725
        ]
      },
      "id": "node/11934956971"
    },
    {
      "type": "Feature",
      "properties": {
        "@id": "node/11936561382",
        "access": "yes",
        "amenity": "drinking_water",
        "bottle": "yes",
        "level": "0"
      },
      "geometry": {
        "type": "Point",
        "coordinates": [
          77.2329868,
          28.6267226
        ]
      },
      "id": "node/11936561382"
    },
    {
      "type": "Feature",
      "properties": {
        "@id": "node/11951144186",
        "access": "yes",
        "amenity": "drinking_water",
        "bottle": "yes",
        "fountain": "nozzle",
        "level": "0"
      },
      "geometry": {
        "type": "Point",
        "coordinates": [
          77.1222327,
          28.5945921
        ]
      },
      "id": "node/11951144186"
    },
    {
      "type": "Feature",
      "properties": {
        "@id": "node/11963064853",
        "access": "yes",
        "amenity": "drinking_water",
        "bottle": "yes",
        "capacity": "1",
        "fountain": "nozzle",
        "indoor": "no",
        "level": "0",
        "noname": "yes",
        "operator": "Gurudwara Sri Guru Singh Sabha"
      },
      "geometry": {
        "type": "Point",
        "coordinates": [
          77.2002434,
          28.6498784
        ]
      },
      "id": "node/11963064853"
    },
    {
      "type": "Feature",
      "properties": {
        "@id": "node/11966408447",
        "access": "yes",
        "amenity": "drinking_water",
        "bottle": "yes",
        "fountain": "nozzle",
        "level": "0"
      },
      "geometry": {
        "type": "Point",
        "coordinates": [
          77.1183135,
          28.5870489
        ]
      },
      "id": "node/11966408447"
    },
    {
      "type": "Feature",
      "properties": {
        "@id": "node/11966408452",
        "access": "yes",
        "amenity": "drinking_water",
        "bottle": "yes",
        "fountain": "nozzle",
        "level": "0"
      },
      "geometry": {
        "type": "Point",
        "coordinates": [
          77.1182605,
          28.5869493
        ]
      },
      "id": "node/11966408452"
    },
    {
      "type": "Feature",
      "properties": {
        "@id": "node/11973744648",
        "amenity": "drinking_water",
        "indoor": "yes"
      },
      "geometry": {
        "type": "Point",
        "coordinates": [
          77.2350024,
          28.6244557
        ]
      },
      "id": "node/11973744648"
    },
    {
      "type": "Feature",
      "properties": {
        "@id": "node/11985043678",
        "amenity": "drinking_water"
      },
      "geometry": {
        "type": "Point",
        "coordinates": [
          77.1801178,
          28.5853196
        ]
      },
      "id": "node/11985043678"
    },
    {
      "type": "Feature",
      "properties": {
        "@id": "node/11985043679",
        "amenity": "drinking_water"
      },
      "geometry": {
        "type": "Point",
        "coordinates": [
          77.1814562,
          28.5852554
        ]
      },
      "id": "node/11985043679"
    },
    {
      "type": "Feature",
      "properties": {
        "@id": "node/11985483787",
        "amenity": "drinking_water"
      },
      "geometry": {
        "type": "Point",
        "coordinates": [
          77.2340495,
          28.6249011
        ]
      },
      "id": "node/11985483787"
    },
    {
      "type": "Feature",
      "properties": {
        "@id": "node/11998137945",
        "amenity": "drinking_water"
      },
      "geometry": {
        "type": "Point",
        "coordinates": [
          77.2371143,
          28.6022196
        ]
      },
      "id": "node/11998137945"
    },
    {
      "type": "Feature",
      "properties": {
        "@id": "node/12030663065",
        "amenity": "drinking_water"
      },
      "geometry": {
        "type": "Point",
        "coordinates": [
          77.1959207,
          28.5773121
        ]
      },
      "id": "node/12030663065"
    },
    {
      "type": "Feature",
      "properties": {
        "@id": "node/12068591482",
        "amenity": "drinking_water"
      },
      "geometry": {
        "type": "Point",
        "coordinates": [
          77.1929079,
          28.5530522
        ]
      },
      "id": "node/12068591482"
    },
    {
      "type": "Feature",
      "properties": {
        "@id": "node/12069879047",
        "access": "yes",
        "amenity": "drinking_water",
        "level": "0"
      },
      "geometry": {
        "type": "Point",
        "coordinates": [
          77.1207364,
          28.5928445
        ]
      },
      "id": "node/12069879047"
    },
    {
      "type": "Feature",
      "properties": {
        "@id": "node/12093549891",
        "access": "yes",
        "amenity": "drinking_water",
        "bottle": "yes",
        "level": "0"
      },
      "geometry": {
        "type": "Point",
        "coordinates": [
          77.2489261,
          28.5429315
        ]
      },
      "id": "node/12093549891"
    },
    {
      "type": "Feature",
      "properties": {
        "@id": "node/12192727888",
        "access": "yes",
        "amenity": "drinking_water",
        "bottle": "yes",
        "fountain": "nozzle",
        "level": "0"
      },
      "geometry": {
        "type": "Point",
        "coordinates": [
          77.1256475,
          28.5916046
        ]
      },
      "id": "node/12192727888"
    },
    {
      "type": "Feature",
      "properties": {
        "@id": "node/12223912040",
        "access": "yes",
        "amenity": "drinking_water",
        "fee": "no"
      },
      "geometry": {
        "type": "Point",
        "coordinates": [
          77.0715912,
          28.587496
        ]
      },
      "id": "node/12223912040"
    },
    {
      "type": "Feature",
      "properties": {
        "@id": "node/12255411540",
        "amenity": "drinking_water"
      },
      "geometry": {
        "type": "Point",
        "coordinates": [
          77.1790355,
          28.618584
        ]
      },
      "id": "node/12255411540"
    },
    {
      "type": "Feature",
      "properties": {
        "@id": "node/12255436489",
        "amenity": "drinking_water"
      },
      "geometry": {
        "type": "Point",
        "coordinates": [
          77.1785735,
          28.6186719
        ]
      },
      "id": "node/12255436489"
    },
    {
      "type": "Feature",
      "properties": {
        "@id": "node/12393810676",
        "amenity": "drinking_water",
        "fee": "no"
      },
      "geometry": {
        "type": "Point",
        "coordinates": [
          77.0328291,
          28.6152389
        ]
      },
      "id": "node/12393810676"
    },
    {
      "type": "Feature",
      "properties": {
        "@id": "node/12579202243",
        "amenity": "drinking_water"
      },
      "geometry": {
        "type": "Point",
        "coordinates": [
          77.0507623,
          28.5963198
        ]
      },
      "id": "node/12579202243"
    },
    {
      "type": "Feature",
      "properties": {
        "@id": "node/12592550038",
        "amenity": "drinking_water",
        "drinking_water": "yes",
        "man_made": "water_tap"
      },
      "geometry": {
        "type": "Point",
        "coordinates": [
          77.2545286,
          28.5868743
        ]
      },
      "id": "node/12592550038"
    },
    {
      "type": "Feature",
      "properties": {
        "@id": "node/12592550039",
        "amenity": "drinking_water",
        "drinking_water": "yes",
        "man_made": "water_tap"
      },
      "geometry": {
        "type": "Point",
        "coordinates": [
          77.2544777,
          28.5879759
        ]
      },
      "id": "node/12592550039"
    },
    {
      "type": "Feature",
      "properties": {
        "@id": "node/12592712413",
        "access": "yes",
        "amenity": "drinking_water",
        "fee": "no",
        "wheelchair": "no"
      },
      "geometry": {
        "type": "Point",
        "coordinates": [
          77.2259588,
          28.6500914
        ]
      },
      "id": "node/12592712413"
    },
    {
      "type": "Feature",
      "properties": {
        "@id": "node/12639638660",
        "access": "yes",
        "amenity": "drinking_water",
        "bottle": "yes",
        "charge:conditional": "3 INR @ 250 ml; 10 INR @ 1 liter",
        "fee": "yes",
        "indoor": "yes",
        "level": "0"
      },
      "geometry": {
        "type": "Point",
        "coordinates": [
          77.2258127,
          28.6482293
        ]
      },
      "id": "node/12639638660"
    },
    {
      "type": "Feature",
      "properties": {
        "@id": "node/12647261527",
        "amenity": "drinking_water",
        "bottle": "yes",
        "indoor": "yes",
        "level": "0"
      },
      "geometry": {
        "type": "Point",
        "coordinates": [
          77.0410102,
          28.5927128
        ]
      },
      "id": "node/12647261527"
    },
    {
      "type": "Feature",
      "properties": {
        "@id": "node/12723115346",
        "amenity": "drinking_water",
        "bottle": "yes",
        "level": "0"
      },
      "geometry": {
        "type": "Point",
        "coordinates": [
          77.2395711,
          28.5562205
        ]
      },
      "id": "node/12723115346"
    },
    {
      "type": "Feature",
      "properties": {
        "@id": "node/12732526816",
        "amenity": "drinking_water",
        "fee": "no",
        "operator": "DDA",
        "wheelchair": "limited"
      },
      "geometry": {
        "type": "Point",
        "coordinates": [
          77.0249165,
          28.5904479
        ]
      },
      "id": "node/12732526816"
    },
    {
      "type": "Feature",
      "properties": {
        "@id": "node/12779104960",
        "access": "yes",
        "amenity": "drinking_water",
        "bottle": "yes",
        "dog": "no",
        "fountain": "bottle_refill",
        "historic": "no",
        "level": "0"
      },
      "geometry": {
        "type": "Point",
        "coordinates": [
          77.2055954,
          28.6004756
        ]
      },
      "id": "node/12779104960"
    },
    {
      "type": "Feature",
      "properties": {
        "@id": "node/12788053432",
        "access": "yes",
        "amenity": "drinking_water",
        "bottle": "yes",
        "dog": "no",
        "fountain": "bottle_refill",
        "historic": "no",
        "level": "0"
      },
      "geometry": {
        "type": "Point",
        "coordinates": [
          77.2129361,
          28.5862389
        ]
      },
      "id": "node/12788053432"
    },
    {
      "type": "Feature",
      "properties": {
        "@id": "node/12800053259",
        "amenity": "drinking_water",
        "fountain": "bottle_refill"
      },
      "geometry": {
        "type": "Point",
        "coordinates": [
          77.2409022,
          28.5531201
        ]
      },
      "id": "node/12800053259"
    },
    {
      "type": "Feature",
      "properties": {
        "@id": "node/12800198003",
        "access": "yes",
        "amenity": "drinking_water",
        "fountain": "bottle_refill",
        "level": "0"
      },
      "geometry": {
        "type": "Point",
        "coordinates": [
          77.2316168,
          28.5516663
        ]
      },
      "id": "node/12800198003"
    },
    {
      "type": "Feature",
      "properties": {
        "@id": "node/12823360946",
        "access": "yes",
        "amenity": "drinking_water",
        "bottle": "yes",
        "dog": "no",
        "fountain": "nozzle",
        "historic": "no",
        "level": "0"
      },
      "geometry": {
        "type": "Point",
        "coordinates": [
          77.2021326,
          28.5286268
        ]
      },
      "id": "node/12823360946"
    },
    {
      "type": "Feature",
      "properties": {
        "@id": "node/12823360952",
        "access": "yes",
        "amenity": "drinking_water",
        "bottle": "yes",
        "dog": "no",
        "fountain": "nozzle",
        "historic": "no",
        "level": "0"
      },
      "geometry": {
        "type": "Point",
        "coordinates": [
          77.202146,
          28.5286207
        ]
      },
      "id": "node/12823360952"
    },
    {
      "type": "Feature",
      "properties": {
        "@id": "node/12823360997",
        "access": "yes",
        "amenity": "drinking_water",
        "bottle": "yes",
        "dog": "no",
        "fountain": "nozzle",
        "historic": "no",
        "level": "0"
      },
      "geometry": {
        "type": "Point",
        "coordinates": [
          77.2021052,
          28.5286394
        ]
      },
      "id": "node/12823360997"
    },
    {
      "type": "Feature",
      "properties": {
        "@id": "node/12823360999",
        "access": "yes",
        "amenity": "drinking_water",
        "bottle": "yes",
        "dog": "no",
        "fountain": "nozzle",
        "historic": "no",
        "level": "0"
      },
      "geometry": {
        "type": "Point",
        "coordinates": [
          77.2021183,
          28.5286334
        ]
      },
      "id": "node/12823360999"
    },
    {
      "type": "Feature",
      "properties": {
        "@id": "node/12823361006",
        "access": "yes",
        "amenity": "drinking_water",
        "bottle": "yes",
        "dog": "no",
        "fountain": "nozzle",
        "historic": "no",
        "level": "0"
      },
      "geometry": {
        "type": "Point",
        "coordinates": [
          77.2020905,
          28.5286461
        ]
      },
      "id": "node/12823361006"
    },
    {
      "type": "Feature",
      "properties": {
        "@id": "node/12835636017",
        "access": "private",
        "amenity": "drinking_water",
        "bottle": "yes",
        "dog": "no",
        "fountain": "nozzle",
        "historic": "no",
        "indoor": "yes",
        "level": "0"
      },
      "geometry": {
        "type": "Point",
        "coordinates": [
          77.2637762,
          28.5392614
        ]
      },
      "id": "node/12835636017"
    },
    {
      "type": "Feature",
      "properties": {
        "@id": "node/12835662550",
        "access": "private",
        "amenity": "drinking_water",
        "bottle": "yes",
        "dog": "no",
        "fountain": "nozzle",
        "historic": "no",
        "indoor": "yes",
        "level": "0"
      },
      "geometry": {
        "type": "Point",
        "coordinates": [
          77.2640656,
          28.538849
        ]
      },
      "id": "node/12835662550"
    },
    {
      "type": "Feature",
      "properties": {
        "@id": "node/12839661856",
        "access": "yes",
        "amenity": "drinking_water",
        "bottle": "yes",
        "dog": "no",
        "fountain": "drinking",
        "historic": "no",
        "level": "0"
      },
      "geometry": {
        "type": "Point",
        "coordinates": [
          77.2027988,
          28.637797
        ]
      },
      "id": "node/12839661856"
    },
    {
      "type": "Feature",
      "properties": {
        "@id": "node/12839662481",
        "access": "yes",
        "amenity": "drinking_water",
        "bottle": "yes",
        "dog": "no",
        "fountain": "drinking",
        "historic": "no",
        "level": "0"
      },
      "geometry": {
        "type": "Point",
        "coordinates": [
          77.2025787,
          28.6372909
        ]
      },
      "id": "node/12839662481"
    },
    {
      "type": "Feature",
      "properties": {
        "@id": "node/12912079349",
        "amenity": "drinking_water",
        "fountain": "bottle_refill"
      },
      "geometry": {
        "type": "Point",
        "coordinates": [
          77.1339582,
          28.5966632
        ]
      },
      "id": "node/12912079349"
    },
    {
      "type": "Feature",
      "properties": {
        "@id": "node/12912238052",
        "amenity": "drinking_water",
        "fountain": "bottle_refill"
      },
      "geometry": {
        "type": "Point",
        "coordinates": [
          77.1330758,
          28.5966628
        ]
      },
      "id": "node/12912238052"
    },
    {
      "type": "Feature",
      "properties": {
        "@id": "node/12917488089",
        "amenity": "drinking_water",
        "bottle": "yes",
        "contact:email": "rail@helloboon.com",
        "contact:mobile": "+91-74119-44645",
        "level": "0",
        "name": "Boon Water ATM",
        "note": "Refill charges ₹2 for 300ml, ₹3 for 500ml, ₹5 for 1L, ₹8 for 2L, ₹20 for 5L. With container ₹3 for 300ml, ₹5 for 500ml, ₹8 for 1L, ₹12 for 2L, ₹25 for 5L.",
        "shop": "water"
      },
      "geometry": {
        "type": "Point",
        "coordinates": [
          77.2540113,
          28.5876826
        ]
      },
      "id": "node/12917488089"
    },
    {
      "type": "Feature",
      "properties": {
        "@id": "node/12965730705",
        "amenity": "drinking_water"
      },
      "geometry": {
        "type": "Point",
        "coordinates": [
          77.1876181,
          28.5790843
        ]
      },
      "id": "node/12965730705"
    },
    {
      "type": "Feature",
      "properties": {
        "@id": "node/12965773915",
        "amenity": "drinking_water"
      },
      "geometry": {
        "type": "Point",
        "coordinates": [
          77.1862041,
          28.5789568
        ]
      },
      "id": "node/12965773915"
    },
    {
      "type": "Feature",
      "properties": {
        "@id": "node/13013134670",
        "access": "yes",
        "amenity": "drinking_water",
        "bottle": "yes",
        "covered": "yes",
        "fee": "no",
        "lit": "no",
        "wheelchair": "limited"
      },
      "geometry": {
        "type": "Point",
        "coordinates": [
          77.0185377,
          28.5949301
        ]
      },
      "id": "node/13013134670"
    },
    {
      "type": "Feature",
      "properties": {
        "@id": "node/13094778274",
        "amenity": "drinking_water"
      },
      "geometry": {
        "type": "Point",
        "coordinates": [
          77.256329,
          28.5411258
        ]
      },
      "id": "node/13094778274"
    },
    {
      "type": "Feature",
      "properties": {
        "@id": "node/13110441787",
        "amenity": "drinking_water"
      },
      "geometry": {
        "type": "Point",
        "coordinates": [
          77.2575832,
          28.5490756
        ]
      },
      "id": "node/13110441787"
    },
    {
      "type": "Feature",
      "properties": {
        "@id": "node/13240442601",
        "access": "permissive",
        "amenity": "drinking_water",
        "fee": "no",
        "wheelchair": "yes"
      },
      "geometry": {
        "type": "Point",
        "coordinates": [
          77.0925288,
          28.5004995
        ]
      },
      "id": "node/13240442601"
    },
    {
      "type": "Feature",
      "properties": {
        "@id": "node/13397135899",
        "amenity": "drinking_water"
      },
      "geometry": {
        "type": "Point",
        "coordinates": [
          77.2537468,
          28.5880124
        ]
      },
      "id": "node/13397135899"
    },
    {
      "type": "Feature",
      "properties": {
        "@id": "node/13451541101",
        "amenity": "drinking_water"
      },
      "geometry": {
        "type": "Point",
        "coordinates": [
          77.2547384,
          28.5865323
        ]
      },
      "id": "node/13451541101"
    },
    {
      "type": "Feature",
      "properties": {
        "@id": "node/13451541125",
        "amenity": "drinking_water"
      },
      "geometry": {
        "type": "Point",
        "coordinates": [
          77.2547384,
          28.5865323
        ]
      },
      "id": "node/13451541125"
    },
    {
      "type": "Feature",
      "properties": {
        "@id": "node/13455403542",
        "amenity": "drinking_water"
      },
      "geometry": {
        "type": "Point",
        "coordinates": [
          77.1100736,
          28.6248456
        ]
      },
      "id": "node/13455403542"
    },
    {
      "type": "Feature",
      "properties": {
        "@id": "node/13455403571",
        "amenity": "drinking_water"
      },
      "geometry": {
        "type": "Point",
        "coordinates": [
          77.1107288,
          28.6222777
        ]
      },
      "id": "node/13455403571"
    },
    {
      "type": "Feature",
      "properties": {
        "@id": "node/13564321683",
        "amenity": "drinking_water"
      },
      "geometry": {
        "type": "Point",
        "coordinates": [
          77.2273854,
          28.6012277
        ]
      },
      "id": "node/13564321683"
    },
    {
      "type": "Feature",
      "properties": {
        "@id": "node/13626233698",
        "amenity": "drinking_water"
      },
      "geometry": {
        "type": "Point",
        "coordinates": [
          77.253645,
          28.5900498
        ]
      },
      "id": "node/13626233698"
    },
    {
      "type": "Feature",
      "properties": {
        "@id": "node/13681392889",
        "amenity": "drinking_water"
      },
      "geometry": {
        "type": "Point",
        "coordinates": [
          77.2157507,
          28.6261679
        ]
      },
      "id": "node/13681392889"
    },
    {
      "type": "Feature",
      "properties": {
        "@id": "node/13807550243",
        "amenity": "drinking_water"
      },
      "geometry": {
        "type": "Point",
        "coordinates": [
          77.2605868,
          28.5909226
        ]
      },
      "id": "node/13807550243"
    },
    {
      "type": "Feature",
      "properties": {
        "@id": "node/13814644432",
        "amenity": "drinking_water"
      },
      "geometry": {
        "type": "Point",
        "coordinates": [
          77.1202458,
          28.563283
        ]
      },
      "id": "node/13814644432"
    },
    {
      "type": "Feature",
      "properties": {
        "@id": "node/13890672520",
        "amenity": "drinking_water",
        "fee": "no",
        "fountain": "bottle_refill",
        "level": "3"
      },
      "geometry": {
        "type": "Point",
        "coordinates": [
          77.0804192,
          28.4807627
        ]
      },
      "id": "node/13890672520"
    },
    {
      "type": "Feature",
      "properties": {
        "@id": "node/13984656578",
        "amenity": "drinking_water"
      },
      "geometry": {
        "type": "Point",
        "coordinates": [
          77.2101739,
          28.5702264
        ]
      },
      "id": "node/13984656578"
    },
    {
      "type": "Feature",
      "properties": {
        "@id": "node/14048312525",
        "amenity": "drinking_water"
      },
      "geometry": {
        "type": "Point",
        "coordinates": [
          77.224905,
          28.6258997
        ]
      },
      "id": "node/14048312525"
    }
  ]
}